CUTE-1 (CO-55)          
1 27844U 03031E   26068.98532191  .00000429  00000+0  20468-3 0  9999
2 27844  98.6777  78.7801 0010677 111.7093 248.5223 14.24266468177559
CUBESAT XI-IV (CO-57)   
1 27848U 03031J   26068.92432161  .00000357  00000+0  17578-3 0  9991
2 27848  98.6810  78.5124 0010400 128.1826 232.0291 14.23561441177255
CUBESAT XI-V            
1 28895U 05043F   26068.37605880  .00002499  00000+0  40288-3 0  9991
2 28895  98.2834 221.9939 0014724 158.5117 201.6710 14.72318453 87065
CUTE-1.7+APD II (CO-65) 
1 32785U 08021C   26068.91255470  .00007295  00000+0  47295-3 0  9993
2 32785  97.8207  48.3884 0009605  18.7003 341.4575 15.08376872970220
CANX-2                  
1 32790U 08021H   26068.90660721  .00005531  00000+0  39590-3 0  9997
2 32790  97.8556  46.8625 0011305  28.5783 331.6060 15.04798248969873
SEEDS II (CO-66)        
1 32791U 08021J   26068.92109284  .00023758  00000+0  84213-3 0  9995
2 32791  97.7519  62.3611 0001447 359.2618   0.8619 15.29097236972108
SWISSCUBE               
1 35932U 09051B   26068.68279324  .00001598  00000+0  32658-3 0  9999
2 35932  98.4094 334.8256 0007054 152.7663 207.3909 14.62259637874616
BEESAT-1                
1 35933U 09051C   26068.70998915  .00001326  00000+0  27708-3 0  9996
2 35933  98.4027 334.6934 0005310 163.1503 196.9874 14.61533291874654
ITUPSAT1                
1 35935U 09051E   26068.95684347  .00001190  00000+0  25649-3 0  9997
2 35935  98.4113 334.2386 0007289 177.2915 182.8326 14.60268809874250
TISAT 1                 
1 36799U 10035E   26068.75703562  .00024554  00000+0  91005-3 0  9997
2 36799  98.0645   6.8512 0001343 159.3030 200.8262 15.27628633852505
AEROCUBE 4.5A           
1 38767U 12048K   26068.97978763  .00101362  00000+0  10922-2 0  9992
2 38767  64.6384  19.0525 0040750 211.9552 147.9122 15.62097136357031
STRAND-1                
1 39090U 13009E   26068.91249030  .00000466  00000+0  17107-3 0  9998
2 39090  98.3888 251.5986 0009042 161.0822 199.0703 14.37095119682801
BRITE-AUSTRIA           
1 39091U 13009F   26068.46526738  .00000300  00000+0  11657-3 0  9993
2 39091  98.3955 250.3783 0010348 171.7863 188.3495 14.36496020682739
NEE-01 PEGASO           
1 39151U 13018B   26068.36510274  .00003896  00000+0  37911-3 0  9991
2 39151  98.1050 209.3460 0013621 130.5869 229.6537 14.93090964695800
POPACS 2                
1 39269U 13055E   26068.50954283  .00029878  00000+0  51935-3 0  9990
2 39269  80.9893 258.0384 0430745 153.4128 208.9906 14.87802959648370
POPACS 3                
1 39270U 13055F   26067.78556540  .00019405  00000+0  46790-3 0  9993
2 39270  81.0053 337.8959 0560367  15.4614 346.2932 14.53938339623954
ZACUBE-1 (TSHEPISOSAT)  
1 39417U 13066B   26068.93017904  .00005431  00000+0  42975-3 0  9997
2 39417  97.8171  30.7553 0042526 219.1599 140.6545 15.00329659665841
WNISAT-1                
1 39423U 13066H   26068.97419146  .00002198  00000+0  40776-3 0  9996
2 39423  97.7044 225.2618 0163581 183.9709 176.0205 14.57873953652276
TRITON-1                
1 39427U 13066M   26069.00891635  .00003065  00000+0  37394-3 0  9998
2 39427  97.8288 341.0923 0090141 196.6840 163.1403 14.81201223659406
GOMX-1                  
1 39430U 13066Q   26068.96105159  .00003409  00000+0  51711-3 0  9996
2 39430  97.6568 275.6493 0130222  36.6495 324.3532 14.69103088655346
CUBEBUG-2 (LO-74)       
1 39440U 13066AA  26068.83168079  .00006310  00000+0  59321-3 0  9992
2 39440  97.8812  17.5050 0058705 358.4894   1.6138 14.92958446662163
NEE-02 KRYSAOR          
1 39441U 13066AB  26068.37805844  .00004234  00000+0  46919-3 0  9992
2 39441  97.8816   8.3817 0067760  38.0821 322.5155 14.86160783661377
FUNCUBE-1 (AO-73)       
1 39444U 13066AE  26068.90648558  .00009564  00000+0  61715-3 0  9993
2 39444  97.8195  38.4486 0037311 178.1154 182.0221 15.07917828664695
UWE-3                   
1 39446U 13066AG  26068.86347791  .00006533  00000+0  57142-3 0  9997
2 39446  97.8589  24.3957 0048462 291.5404  68.0655 14.96183146662729
BRITE-CA1 (TORONTO)     
1 40020U 14033L   26068.90085931  .00001723  00000+0  26710-3 0  9995
2 40020  97.9564 199.7641 0077906 234.2245 125.1703 14.72464239627608
DUCHIFAT-1              
1 40021U 14033M   26068.69985045  .00058640  00000+0  10480-2 0  9993
2 40021  98.0631 115.1281 0006112  85.0468 275.1479 15.49813944640278
NANOSATC-BR1            
1 40024U 14033Q   26068.98267556  .00020336  00000+0  74295-3 0  9994
2 40024  98.0845  92.7804 0004643 147.6715 212.4808 15.28136801638810
QB50P1                  
1 40025U 14033R   26068.97393773  .00011283  00000+0  58166-3 0  9995
2 40025  98.1009  73.2758 0008366 193.7221 166.3784 15.16526525637986
QB50P2                  
1 40032U 14033Y   26068.92777639  .00010584  00000+0  59146-3 0  9997
2 40032  98.0738  59.7545 0008566 142.3387 217.8444 15.13675048637640
PERSEUS-M2              
1 40037U 14033AD  26068.96158256  .00002576  00000+0  23994-3 0  9998
2 40037  97.9870  17.5706 0010341 270.5936  89.4099 14.95162748635957
PERSEUS-M1              
1 40039U 14033AF  26068.74096275  .00002357  00000+0  21948-3 0  9992
2 40039  97.9555  11.3245 0010057 268.3220  91.6848 14.95254642635776
POLYITAN-1              
1 40042U 14033AJ  26068.93599836  .00024003  00000+0  83772-3 0  9993
2 40042  98.1053  86.0432 0009360 127.2480 232.9614 15.29568085638400
TIGRISAT                
1 40043U 14033AK  26068.92693364  .00002867  00000+0  33713-3 0  9998
2 40043  97.7676 221.3196 0050331  41.5802 318.9224 14.84730018630892
AEROCUBE 6A             
1 40045U 14033AM  26068.93083120  .00007845  00000+0  67890-3 0  9998
2 40045  97.7128 237.0691 0038730 349.0559  10.9816 14.96848607631764
AEROCUBE 6B             
1 40046U 14033AN  26068.42625992  .00007941  00000+0  66368-3 0  9998
2 40046  97.7129 236.1645 0037452 343.2300  16.7681 14.98232474631816
CANX-4                  
1 40055U 14034C   26068.57587242  .00001439  00000+0  19272-3 0  9998
2 40055  98.3276 300.1593 0012356 336.8970  23.1684 14.81061360629781
CANX-5                  
1 40056U 14034D   26068.71056464  .00001421  00000+0  19034-3 0  9999
2 40056  98.3278 300.3368 0012317 336.6034  23.4615 14.81078391620614
UKUBE-1                 
1 40074U 14037F   26068.94829568  .00011290  00000+0  66504-3 0  9999
2 40074  98.4237  61.9367 0003076 110.8829 249.2728 15.11800455633553
BRITE-PL2 (HEWELIUSZ)   
1 40119U 14049B   26068.87400651  .00002742  00000+0  26097-3 0  9997
2 40119  97.8982 180.2053 0015445  80.5248 279.7716 14.94186201626611
AEROCUBE 5C             
1 40965U 15058B   26068.71197411  .00004804  00000+0  42791-3 0  9997
2 40965  64.7674 211.9094 0130672 102.4860 259.0908 14.90857126350820
AEROCUBE 7              
1 40966U 15058C   26068.71738147  .00005894  00000+0  47977-3 0  9996
2 40966  64.7631 196.1788 0120606 101.5653 259.9029 14.94898912351088
FOX-1A (AO-85)          
1 40967U 15058D   26068.92792905  .00004759  00000+0  43145-3 0  9994
2 40967  64.7749 227.3018 0128883  95.8080 265.7742 14.90358802 98772
SINOD-D 1               
1 40968U 15058E   26068.70671034  .00006216  00000+0  50695-3 0  9998
2 40968  64.7759 210.2419 0117280  93.1753 268.2787 14.95054547101784
SNAP-3 ALICE            
1 40970U 15058G   26068.96376132  .00066590  00000+0  14231-2 0  9996
2 40970  64.7559  82.4068 0037361  68.3259 292.1850 15.43691989101496
LMRST-SAT               
1 40971U 15058H   26068.72417701  .00004653  00000+0  42420-3 0  9993
2 40971  64.7755 224.0879 0131012  97.8444 263.7563 14.89988841 98732
SNAP-3 EDDIE            
1 40972U 15058J   26068.44241216  .00062838  00000+0  12992-2 0  9998
2 40972  64.7481  75.5572 0038404  73.6673 286.8683 15.44637695103540
PROPCUBE 3              
1 40973U 15058K   26068.73202292  .00005546  00000+0  46586-3 0  9992
2 40973  64.7688 203.0958 0123527  99.6156 261.8939 14.93528956 99948
BISONSAT                
1 40974U 15058L   26068.49277029  .00012971  00000+0  67111-3 0  9993
2 40974  64.7598 135.3937 0079238  90.6713 270.3490 15.13791398100510
SNAP-3 JIMI             
1 40975U 15058M   26068.63164788  .00007303  00000+0  51665-3 0  9997
2 40975  64.7662 174.4840 0105534  96.5110 264.8035 15.01135599 99270
PROPCUBE 1 (FLORA)      
1 40976U 15058N   26068.92421983  .00004703  00000+0  44491-3 0  9993
2 40976  64.7740 242.7389 0130115 100.0601 261.5220 14.88641208101484
SINOD-D 3               
1 40977U 15058P   26068.81223977  .00006149  00000+0  52531-3 0  9995
2 40977  64.7724 225.9436 0118520  98.0775 263.3804 14.93212807 99914
HORYU-4                 
1 41340U 16012D   26068.08347207  .00100952  00000+0  10659-2 0  9994
2 41340  30.9916  72.2531 0002960 145.5541 214.5304 15.62775175555015
RAVAN                   
1 41849U 16067B   26068.64345240  .00037768  00000+0  76908-3 0  9999
2 41849  98.0039 307.3532 0006137   6.7222 353.4107 15.46151325512279
CELTEE 1                
1 41850U 16067C   26068.55062269  .00007714  00000+0  37656-3 0  9993
2 41850  98.0813 288.3139 0000948 135.7027 224.4281 15.18591912510752
OPTICUBE 04             
1 41851U 16067D   26068.51005507  .00003845  00000+0  24567-3 0  9990
2 41851  98.0811 275.5525 0017090  94.6311 265.6869 15.09188378510132
AEROCUBE 8D             
1 41852U 16067E   26068.53082619  .00009137  00000+0  39319-3 0  9993
2 41852  98.0830 291.1456 0004760 111.8703 248.3038 15.22872123510890
AEROCUBE 8C             
1 41853U 16067F   26068.57122688  .00009726  00000+0  41541-3 0  9993
2 41853  98.0696 288.5487 0006461  53.7064 306.4766 15.23097058510890
CORVUS BC2              
1 42846U 17042X   26068.92684092  .00004947  00000+0  34626-3 0  9997
2 42846  97.3955 234.2405 0014586  92.3850 267.9047 15.05610206472122
CORVUS BC1              
1 42847U 17042Y   26068.93334460  .00004853  00000+0  33801-3 0  9990
2 42847  97.3986 234.9925 0013283  71.1953 289.0714 15.05817893472153
